OBJECT_NAME,OBJECT_ID,EPOCH,MEAN_MOTION,ECCENTRICITY,INCLINATION,RA_OF_ASC_NODE,ARG_OF_PERICENTER,MEAN_ANOMALY,EPHEMERIS_TYPE,CLASSIFICATION_TYPE,NORAD_CAT_ID,ELEMENT_SET_NO,REV_AT_EPOCH,BSTAR,MEAN_MOTION_DOT,MEAN_MOTION_DDOT
STARLINK-6344,2023-065T,2026-06-13T21:39:32.870592,15.27572436,.000141,43.0043,29.1666,265.8498,94.2192,0,U,56520,999,17131,.33925E-4,.671E-5,0
STARLINK-6333,2023-065U,2026-06-13T21:57:19.864800,15.27576084,.0001288,43.0059,32.6567,257.9098,102.1609,0,U,56521,999,17127,.68433E-5,-.74E-6,0
STARLINK-6327,2023-065V,2026-06-13T21:48:48.978144,15.27563641,.0001366,43.0031,29.2082,110.8570,249.2428,0,U,56522,999,17131,-.33955E-4,-.1196E-4,0
STARLINK-6328,2023-065W,2026-06-13T22:20:14.353152,15.27578724,.0001277,43.0053,29.3751,263.6786,96.3921,0,U,56523,999,17131,-.22637E-4,-.885E-5,0
STARLINK-6323,2023-065X,2026-06-13T22:10:59.437056,15.27576168,.0001185,43.0044,29.3294,263.2585,96.8132,0,U,56524,999,17131,.13044E-4,.97E-6,0
STARLINK-6329,2023-065Y,2026-06-13T22:40:40.639584,15.26744828,.000132,43.0017,39.6987,264.4692,95.6008,0,U,56525,999,17119,.68151E-4,.1569E-4,0
STARLINK-6317,2023-065Z,2026-06-13T22:16:32.503008,15.27575710,.0000992,43.0077,29.3566,263.5488,96.5251,0,U,56526,999,17131,-.46037E-6,-.275E-5,0
STARLINK-6335,2023-065AA,2026-06-13T21:59:11.248224,15.27574324,.0001293,43.0027,32.6613,265.6902,94.3802,0,U,56527,999,17127,.11184E-5,-.231E-5,0
STARLINK-6337,2023-065AB,2026-06-13T21:48:04.629024,15.27575635,.0001593,43.0005,32.6033,273.0452,87.0217,0,U,56528,999,17127,.47046E-5,-.133E-5,0
STARLINK-6307,2023-065AC,2026-06-13T22:03:37.704096,15.27566414,.0001656,43.0056,17.9940,270.1568,89.9094,0,U,56529,999,17144,-.56127E-4,-.1806E-4,0
STARLINK-6318,2023-065AD,2026-06-13T06:52:19.903008,15.27676081,.00021532,43.0056,7.1174,291.5432,68.5190,0,U,56530,999,17151,-.71620665E-3,-.19977E-3,0
STARLINK-6280,2023-065AE,2026-06-13T21:03:27.653760,15.27578791,.00011857,43.0053,15.1205,262.0296,98.0421,0,U,56531,999,17147,.16121816E-4,.182E-5,0
STARLINK-6319,2023-065AF,2026-06-13T06:44:57.226560,15.27578178,.00008767,43.0046,18.3828,258.0631,102.0122,0,U,56532,999,17138,-.1797014E-5,-.311E-5,0
STARLINK-6310,2023-065AG,2026-06-13T20:32:00.296736,15.27579700,.00015013,43.0038,14.9584,276.8776,83.1905,0,U,56533,999,17147,.22817075E-4,.366E-5,0
STARLINK-6308,2023-065AH,2026-06-13T20:57:54.933408,15.27575239,.00011542,43.0009,15.0950,272.7142,87.3578,0,U,56534,999,17147,.892174E-6,-.237E-5,0
STARLINK-6309,2023-065AJ,2026-06-13T22:06:23.565312,15.27566190,.000228,43.0075,43.1809,278.9248,81.1345,0,U,56535,999,17115,-.13595E-4,-.637E-5,0
STARLINK-6312,2023-065AK,2026-06-13T22:26:42.918144,15.27579075,.0001736,43.0100,43.2880,277.0446,83.0209,0,U,56536,999,17115,.22594E-4,.359E-5,0
STARLINK-6311,2023-065AL,2026-06-13T22:11:54.404736,15.27578508,.0001303,43.0049,43.2081,265.0031,95.0672,0,U,56537,999,17115,.13962E-4,.122E-5,0
STARLINK-6314,2023-065AM,2026-06-13T20:37:33.774816,15.27574531,.00013474,43.0046,14.9829,266.3486,93.7212,0,U,56538,999,17147,-.1226509E-5,-.296E-5,0
STARLINK-6135,2023-065AN,2026-06-13T22:37:49.135584,15.27574758,.0001317,43.0060,43.3408,258.6595,101.4109,0,U,56539,999,17115,-.24556E-5,-.33E-5,0
STARLINK-6136,2023-065AP,2026-06-13T22:43:21.874080,15.27578915,.0000995,43.0053,43.3694,259.6828,100.3912,0,U,56540,999,17115,.14034E-4,.124E-5,0
STARLINK-6249,2023-065AQ,2026-06-13T09:06:15.869376,15.27583077,.00026524,43.0212,43.4377,268.7486,91.3063,0,U,56541,999,17110,.3878866E-5,-.156E-5,0
STARLINK-6266,2023-065AR,2026-06-10T23:55:13.914048,15.27579139,.00013808,43.0054,59.9262,266.0172,94.0522,0,U,56542,999,17070,.30819881E-4,.586E-5,0
STARLINK-6226,2023-065AT,2026-06-13T22:05:13.773120,15.27573908,.0001539,43.0012,39.7698,259.8169,100.2509,0,U,56544,999,17119,.13332E-4,.105E-5,0
STARLINK-6086,2023-065AU,2026-06-13T22:57:01.639872,15.27577852,.0000978,43.0079,40.0327,258.8269,101.2472,0,U,56545,999,17119,.12932E-4,.94E-6,0
STARLINK-6187,2023-065AV,2026-06-13T23:08:07.071936,15.27595267,.0001057,43.0188,40.0851,63.9706,296.1254,0,U,56546,999,17119,.81694E-3,.22296E-3,0
STARLINK-6291,2023-065AW,2026-06-13T22:36:40.392288,15.27577121,.0001124,43.0024,39.9196,266.6874,93.3849,0,U,56547,999,17119,.65505E-5,-.82E-6,0
STARLINK-6244,2023-065AX,2026-06-13T09:08:07.451520,15.27569266,.00016444,43.0080,43.4423,263.4873,96.5792,0,U,56548,999,17110,-.52334264E-4,-.1702E-4,0
STARLINK-6263,2023-065AY,2026-06-13T22:42:13.892832,15.27572753,.0000993,43.0023,39.9459,243.3083,116.7667,0,U,56549,999,17119,-.40026E-5,-.372E-5,0
STARLINK-6255,2023-065AZ,2026-06-13T09:09:58.171392,15.27580165,.0000749,42.9962,43.4565,241.4336,118.6441,0,U,56550,999,17110,.1580516E-4,.173E-5,0
