STARLINK-6344           
1 56520U 23065T   26164.90246378  .00000671  00000+0  33925-4 0  9991
2 56520  43.0043  29.1666 0001410 265.8498  94.2192 15.27572436171314
STARLINK-6333           
1 56521U 23065U   26164.91481325 -.00000074  00000+0  68433-5 0  9997
2 56521  43.0059  32.6567 0001288 257.9098 102.1609 15.27576084171272
STARLINK-6327           
1 56522U 23065V   26164.90890021 -.00001196  00000+0 -33955-4 0  9991
2 56522  43.0031  29.2082 0001366 110.8570 249.2428 15.27563641171318
STARLINK-6328           
1 56523U 23065W   26164.93072168 -.00000885  00000+0 -22637-4 0  9998
2 56523  43.0053  29.3751 0001277 263.6786  96.3921 15.27578724171311
STARLINK-6323           
1 56524U 23065X   26164.92429904  .00000097  00000+0  13044-4 0  9997
2 56524  43.0044  29.3294 0001185 263.2585  96.8132 15.27576168171314
STARLINK-6329           
1 56525U 23065Y   26164.94491481  .00001569  00000+0  68151-4 0  9993
2 56525  43.0017  39.6987 0001320 264.4692  95.6008 15.26744828171195
STARLINK-6317           
1 56526U 23065Z   26164.92815397 -.00000275  00000+0 -46037-6 0  9994
2 56526  43.0077  29.3566 0000992 263.5488  96.5251 15.27575710171315
STARLINK-6335           
1 56527U 23065AA  26164.91610241 -.00000231  00000+0  11184-5 0  9990
2 56527  43.0027  32.6613 0001293 265.6902  94.3802 15.27574324171273
STARLINK-6337           
1 56528U 23065AB  26164.90838691 -.00000133  00000+0  47046-5 0  9998
2 56528  43.0005  32.6033 0001593 273.0452  87.0217 15.27575635171277
STARLINK-6307           
1 56529U 23065AC  26164.91918639 -.00001806  00000+0 -56127-4 0  9999
2 56529  43.0056  17.9940 0001656 270.1568  89.9094 15.27566414171441
STARLINK-6318           
1 56530U 23065AD  26164.28634147 -.00019977  00000+0 -71621-3 0  9993
2 56530  43.0056   7.1174 0002153 291.5432  68.5190 15.27676081171513
STARLINK-6280           
1 56531U 23065AE  26164.87740340  .00000182  00000+0  16122-4 0  9994
2 56531  43.0053  15.1205 0001185 262.0296  98.0421 15.27578791171479
STARLINK-6319           
1 56532U 23065AF  26164.28121790 -.00000311  00000+0 -17970-5 0  9991
2 56532  43.0046  18.3828 0000876 258.0631 102.0122 15.27578178171385
STARLINK-6310           
1 56533U 23065AG  26164.85555899  .00000366  00000+0  22817-4 0  9999
2 56533  43.0038  14.9584 0001501 276.8776  83.1905 15.27579700171472
STARLINK-6308           
1 56534U 23065AH  26164.87355247 -.00000237  00000+0  89217-6 0  9994
2 56534  43.0009  15.0950 0001154 272.7142  87.3578 15.27575239171471
STARLINK-6309           
1 56535U 23065AJ  26164.92110608 -.00000637  00000+0 -13595-4 0  9990
2 56535  43.0075  43.1809 0002280 278.9248  81.1345 15.27566190171151
STARLINK-6312           
1 56536U 23065AK  26164.93521896  .00000359  00000+0  22594-4 0  9995
2 56536  43.0100  43.2880 0001736 277.0446  83.0209 15.27579075171152
STARLINK-6311           
1 56537U 23065AL  26164.92493524  .00000122  00000+0  13962-4 0  9998
2 56537  43.0049  43.2081 0001303 265.0031  95.0672 15.27578508171152
STARLINK-6314           
1 56538U 23065AM  26164.85941869 -.00000296  00000+0 -12265-5 0  9991
2 56538  43.0046  14.9829 0001347 266.3486  93.7212 15.27574531171473
STARLINK-6135           
1 56539U 23065AN  26164.94292981 -.00000330  00000+0 -24556-5 0  9991
2 56539  43.0060  43.3408 0001317 258.6595 101.4109 15.27574758171159
STARLINK-6136           
1 56540U 23065AP  26164.94678095  .00000124  00000+0  14034-4 0  9995
2 56540  43.0053  43.3694 0000995 259.6828 100.3912 15.27578915171150
STARLINK-6249           
1 56541U 23065AQ  26164.37935034 -.00000156  00000+0  38789-5 0  9992
2 56541  43.0212  43.4377 0002652 268.7486  91.3063 15.27583077171106
STARLINK-6266           
1 56542U 23065AR  26161.99668882  .00000586  00000+0  30820-4 0  9995
2 56542  43.0054  59.9262 0001380 266.0172  94.0522 15.27579139170705
STARLINK-6226           
1 56544U 23065AT  26164.92029830  .00000105  00000+0  13332-4 0  9993
2 56544  43.0012  39.7698 0001539 259.8169 100.2509 15.27573908171199
STARLINK-6086           
1 56545U 23065AU  26164.95626898  .00000094  00000+0  12932-4 0  9996
2 56545  43.0079  40.0327 0000978 258.8269 101.2472 15.27577852171195
STARLINK-6187           
1 56546U 23065AV  26164.96397074  .00022296  00000+0  81694-3 0  9997
2 56546  43.0188  40.0851 0001057  63.9706 296.1254 15.27595267171191
STARLINK-6291           
1 56547U 23065AW  26164.94213417 -.00000082  00000+0  65505-5 0  9999
2 56547  43.0024  39.9196 0001124 266.6874  93.3849 15.27577121171199
STARLINK-6244           
1 56548U 23065AX  26164.38064180 -.00001702  00000+0 -52334-4 0  9995
2 56548  43.0080  43.4423 0001644 263.4873  96.5792 15.27569266171100
STARLINK-6263           
1 56549U 23065AY  26164.94599413 -.00000372  00000+0 -40026-5 0  9998
2 56549  43.0023  39.9459 0000993 243.3083 116.7667 15.27572753171193
STARLINK-6255           
1 56550U 23065AZ  26164.38192328  .00000173  00000+0  15805-4 0  9995
2 56550  42.9962  43.4565 0000749 241.4336 118.6441 15.27580165171100
